{"type": "FeatureCollection", "features": [ {"type": "Feature", "properties": {"norad_id": 38953, "name": "BEIDOU-2 G6 (C02)", "group": "beidou", "lat": 0.49377316909618335, "lon": -111.9573840698196, "alt_km": 35800.75013404414, "timestamp": "2025-12-09T05:43:20.990750+00:00", "meta": {"OBJECT_NAME": "BEIDOU-2 G6 (C02)", "OBJECT_ID": "2012-059A", "EPOCH": "2025-12-08T20:51:04.199040", "MEAN_MOTION": 1.00269836, "ECCENTRICITY": 0.0007493, "INCLINATION": 3.9388, "RA_OF_ASC_NODE": 75.5346, "ARG_OF_PERICENTER": 289.1403, "MEAN_ANOMALY": 109.993, "EPHEMERIS_TYPE": 0, "CLASSIFICATION_TYPE": "U", "NORAD_CAT_ID": 38953, "ELEMENT_SET_NO": 999, "REV_AT_EPOCH": 4800, "BSTAR": 0, "MEAN_MOTION_DOT": -1.74e-06, "MEAN_MOTION_DDOT": 0}, "tle": {"line1": "1 38953U 12059A   25342.86879860 -.00000174  00000+0  00000+0 0  9994", "line2": "2 38953   3.9388  75.5346 0007493 289.1403 109.9930  1.00269836 48009"}}, "geometry": {"type": "Point", "coordinates": [-111.9573840698196, 0.49377316909618335]}}, {"type": "Feature", "properties": {"norad_id": 40549, "name": "BEIDOU-3S IGSO-1S (C31)", "group": "beidou", "lat": -28.9676633705632, "lon": -90.41620164174392, "alt_km": 35876.549725554985, "timestamp": "2025-12-09T05:43:20.990762+00:00", "meta": {"OBJECT_NAME": "BEIDOU-3S IGSO-1S (C31)", "OBJECT_ID": "2015-019A", "EPOCH": "2025-12-07T20:38:38.670720", "MEAN_MOTION": 1.00293516, "ECCENTRICITY": 0.0036821, "INCLINATION": 49.562, "RA_OF_ASC_NODE": 297.7693, "ARG_OF_PERICENTER": 193.8977, "MEAN_ANOMALY": 348.5751, "EPHEMERIS_TYPE": 0, "CLASSIFICATION_TYPE": "U", "NORAD_CAT_ID": 40549, "ELEMENT_SET_NO": 999, "REV_AT_EPOCH": 3915, "BSTAR": 0, "MEAN_MOTION_DOT": -1.86e-06, "MEAN_MOTION_DDOT": 0}, "tle": {"line1": "1 40549U 15019A   25341.86016980 -.00000186  00000+0  00000+0 0  9995", "line2": "2 40549  49.5620 297.7693 0036821 193.8977 348.5751  1.00293516 39155"}}, "geometry": {"type": "Point", "coordinates": [-90.41620164174392, -28.9676633705632]}}, {"type": "Feature", "properties": {"norad_id": 40748, "name": "BEIDOU-3S M2S (C58)", "group": "beidou", "lat": -2.2799634402131126, "lon": -53.03038504908155, "alt_km": 21528.026413698317, "timestamp": "2025-12-09T05:43:20.990774+00:00", "meta": {"OBJECT_NAME": "BEIDOU-3S M2S (C58)", "OBJECT_ID": "2015-037A", "EPOCH": "2025-12-08T16:56:06.141696", "MEAN_MOTION": 1.86229071, "ECCENTRICITY": 0.0012283, "INCLINATION": 55.0424, "RA_OF_ASC_NODE": 308.6021, "ARG_OF_PERICENTER": 268.3899, "MEAN_ANOMALY": 91.4573, "EPHEMERIS_TYPE": 0, "CLASSIFICATION_TYPE": "U", "NORAD_CAT_ID": 40748, "ELEMENT_SET_NO": 999, "REV_AT_EPOCH": 7057, "BSTAR": 0, "MEAN_MOTION_DOT": -7.3e-07, "MEAN_MOTION_DDOT": 0}, "tle": {"line1": "1 40748U 15037A   25342.70562664 -.00000073  00000+0  00000+0 0  9990", "line2": "2 40748  55.0424 308.6021 0012283 268.3899  91.4573  1.86229071 70570"}}, "geometry": {"type": "Point", "coordinates": [-53.03038504908155, -2.2799634402131126]}}, {"type": "Feature", "properties": {"norad_id": 40749, "name": "BEIDOU-3S M1S (C57)", "group": "beidou", "lat": -18.363207544364947, "lon": 141.9741062373647, "alt_km": 21537.514441894218, "timestamp": "2025-12-09T05:43:20.990785+00:00", "meta": {"OBJECT_NAME": "BEIDOU-3S M1S (C57)", "OBJECT_ID": "2015-037B", "EPOCH": "2025-12-08T09:35:11.370624", "MEAN_MOTION": 1.86253811, "ECCENTRICITY": 0.0003573, "INCLINATION": 55.0394, "RA_OF_ASC_NODE": 308.6023, "ARG_OF_PERICENTER": 359.9118, "MEAN_ANOMALY": 0.0754, "EPHEMERIS_TYPE": 0, "CLASSIFICATION_TYPE": "U", "NORAD_CAT_ID": 40749, "ELEMENT_SET_NO": 999, "REV_AT_EPOCH": 7057, "BSTAR": 0, "MEAN_MOTION_DOT": -7.3e-07, "MEAN_MOTION_DDOT": 0}, "tle": {"line1": "1 40749U 15037B   25342.39943716 -.00000073  00000+0  00000+0 0  9997", "line2": "2 40749  55.0394 308.6023 0003573 359.9118   0.0754  1.86253811 70578"}}, "geometry": {"type": "Point", "coordinates": [141.9741062373647, -18.363207544364947]}}, {"type": "Feature", "properties": {"norad_id": 40938, "name": "BEIDOU-3S IGSO-2S (C56)", "group": "beidou", "lat": -0.646081308550566, "lon": -99.51238476204257, "alt_km": 36041.33917476725, "timestamp": "2025-12-09T05:43:20.990797+00:00", "meta": {"OBJECT_NAME": "BEIDOU-3S IGSO-2S (C56)", "OBJECT_ID": "2015-053A", "EPOCH": "2025-12-07T17:59:38.817312", "MEAN_MOTION": 1.00270783, "ECCENTRICITY": 0.0060962, "INCLINATION": 49.5194, "RA_OF_ASC_NODE": 261.0646, "ARG_OF_PERICENTER": 188.6217, "MEAN_ANOMALY": 353.0712, "EPHEMERIS_TYPE": 0, "CLASSIFICATION_TYPE": "U", "NORAD_CAT_ID": 40938, "ELEMENT_SET_NO": 999, "REV_AT_EPOCH": 3743, "BSTAR": 0, "MEAN_MOTION_DOT": -1.42e-06, "MEAN_MOTION_DDOT": 0}, "tle": {"line1": "1 40938U 15053A   25341.74975483 -.00000142  00000+0  00000+0 0  9996", "line2": "2 40938  49.5194 261.0646 0060962 188.6217 353.0712  1.00270783 37435"}}, "geometry": {"type": "Point", "coordinates": [-99.51238476204257, -0.646081308550566]}}, {"type": "Feature", "properties": {"norad_id": 41434, "name": "BEIDOU-2 IGSO-6 (C13)", "group": "beidou", "lat": -31.167103528544956, "lon": -119.57094055612441, "alt_km": 35537.698622712516, "timestamp": "2025-12-09T05:43:20.990809+00:00", "meta": {"OBJECT_NAME": "BEIDOU-2 IGSO-6 (C13)", "OBJECT_ID": "2016-021A", "EPOCH": "2025-12-03T15:53:57.382080", "MEAN_MOTION": 1.00293531, "ECCENTRICITY": 0.0059634, "INCLINATION": 59.9536, "RA_OF_ASC_NODE": 39.991, "ARG_OF_PERICENTER": 228.541, "MEAN_ANOMALY": 135.1173, "EPHEMERIS_TYPE": 0, "CLASSIFICATION_TYPE": "U", "NORAD_CAT_ID": 41434, "ELEMENT_SET_NO": 999, "REV_AT_EPOCH": 3552, "BSTAR": 0, "MEAN_MOTION_DOT": -1.61e-06, "MEAN_MOTION_DDOT": 0}, "tle": {"line1": "1 41434U 16021A   25337.66246970 -.00000161  00000+0  00000+0 0  9993", "line2": "2 41434  59.9536  39.9910 0059634 228.5410 135.1173  1.00293531 35525"}}, "geometry": {"type": "Point", "coordinates": [-119.57094055612441, -31.167103528544956]}}, {"type": "Feature", "properties": {"norad_id": 41586, "name": "BEIDOU-2 G7 (C03)", "group": "beidou", "lat": -0.8085068820532693, "lon": -85.49778224129852, "alt_km": 35803.74274666915, "timestamp": "2025-12-09T05:43:20.990822+00:00", "meta": {"OBJECT_NAME": "BEIDOU-2 G7 (C03)", "OBJECT_ID": "2016-037A", "EPOCH": "2025-12-08T20:58:40.969920", "MEAN_MOTION": 1.00268828, "ECCENTRICITY": 0.0004336, "INCLINATION": 1.7471, "RA_OF_ASC_NODE": 67.6909, "ARG_OF_PERICENTER": 1.9563, "MEAN_ANOMALY": 73.366, "EPHEMERIS_TYPE": 0, "CLASSIFICATION_TYPE": "U", "NORAD_CAT_ID": 41586, "ELEMENT_SET_NO": 999, "REV_AT_EPOCH": 498, "BSTAR": 0, "MEAN_MOTION_DOT": -3.51e-06, "MEAN_MOTION_DDOT": 0}, "tle": {"line1": "1 41586U 16037A   25342.87408530 -.00000351  00000+0  00000+0 0  9990", "line2": "2 41586   1.7471  67.6909 0004336   1.9563  73.3660  1.00268828  4984"}}, "geometry": {"type": "Point", "coordinates": [-85.49778224129852, -0.8085068820532693]}}, {"type": "Feature", "properties": {"norad_id": 43001, "name": "BEIDOU-3 M1 (C19)", "group": "beidou", "lat": 42.664851509088976, "lon": -148.15705073802894, "alt_km": 21548.159346998873, "timestamp": "2025-12-09T05:43:20.990833+00:00", "meta": {"OBJECT_NAME": "BEIDOU-3 M1 (C19)", "OBJECT_ID": "2017-069A", "EPOCH": "2025-12-07T10:33:38.997216", "MEAN_MOTION": 1.86230818, "ECCENTRICITY": 0.00090499, "INCLINATION": 56.5227, "RA_OF_ASC_NODE": 69.4088, "ARG_OF_PERICENTER": 303.7178, "MEAN_ANOMALY": 56.2144, "EPHEMERIS_TYPE": 0, "CLASSIFICATION_TYPE": "U", "NORAD_CAT_ID": 43001, "ELEMENT_SET_NO": 999, "REV_AT_EPOCH": 5503, "BSTAR": 0, "MEAN_MOTION_DOT": -4.4e-07, "MEAN_MOTION_DDOT": 0}, "tle": {"line1": "1 43001U 17069A   25341.44003469 -.00000044  00000+0  00000+0 0  9993", "line2": "2 43001  56.5227  69.4088 0009049 303.7178  56.2144  1.86230818 55035"}}, "geometry": {"type": "Point", "coordinates": [-148.15705073802894, 42.664851509088976]}}, {"type": "Feature", "properties": {"norad_id": 43002, "name": "BEIDOU-3 M2 (C20)", "group": "beidou", "lat": 10.772026881852266, "lon": -117.82697649727784, "alt_km": 21544.08581329259, "timestamp": "2025-12-09T05:43:20.990865+00:00", "meta": {"OBJECT_NAME": "BEIDOU-3 M2 (C20)", "OBJECT_ID": "2017-069B", "EPOCH": "2025-12-08T10:51:18.927360", "MEAN_MOTION": 1.86230678, "ECCENTRICITY": 0.00063835, "INCLINATION": 56.5226, "RA_OF_ASC_NODE": 69.4117, "ARG_OF_PERICENTER": 330.8717, "MEAN_ANOMALY": 29.1139, "EPHEMERIS_TYPE": 0, "CLASSIFICATION_TYPE": "U", "NORAD_CAT_ID": 43002, "ELEMENT_SET_NO": 999, "REV_AT_EPOCH": 5504, "BSTAR": 0, "MEAN_MOTION_DOT": -4.4e-07, "MEAN_MOTION_DDOT": 0}, "tle": {"line1": "1 43002U 17069B   25342.45230240 -.00000044  00000+0  00000+0 0  9995", "line2": "2 43002  56.5226  69.4117 0006383 330.8717  29.1139  1.86230678 55044"}}, "geometry": {"type": "Point", "coordinates": [-117.82697649727784, 10.772026881852266]}}, {"type": "Feature", "properties": {"norad_id": 43107, "name": "BEIDOU-3 M7 (C27)", "group": "beidou", "lat": -16.711338945085984, "lon": -63.447971010959584, "alt_km": 21530.24608446786, "timestamp": "2025-12-09T05:43:20.990887+00:00", "meta": {"OBJECT_NAME": "BEIDOU-3 M7 (C27)", "OBJECT_ID": "2018-003A", "EPOCH": "2025-12-08T04:41:21.311520", "MEAN_MOTION": 1.86232319, "ECCENTRICITY": 0.00027287, "INCLINATION": 54.5008, "RA_OF_ASC_NODE": 308.973, "ARG_OF_PERICENTER": 69.0594, "MEAN_ANOMALY": 290.9569, "EPHEMERIS_TYPE": 0, "CLASSIFICATION_TYPE": "U", "NORAD_CAT_ID": 43107, "ELEMENT_SET_NO": 999, "REV_AT_EPOCH": 5379, "BSTAR": 0, "MEAN_MOTION_DOT": -7.3e-07, "MEAN_MOTION_DDOT": 0}, "tle": {"line1": "1 43107U 18003A   25342.19538555 -.00000073  00000+0  00000+0 0  9993", "line2": "2 43107  54.5008 308.9730 0002728  69.0594 290.9569  1.86232319 53790"}}, "geometry": {"type": "Point", "coordinates": [-63.447971010959584, -16.711338945085984]}}]}